{
    "links": {
        "self": "http://www.neowsapp.com/rest/v1/neo/3704150?api_key=iIulBulltgU6a56xZRHN4H3l9WmuAYTsLGpBGhQ2"
    },
    "id": "3704150",
    "neo_reference_id": "3704150",
    "name": "(2015 BA4)",
    "designation": "2015 BA4",
    "nasa_jpl_url": "http://ssd.jpl.nasa.gov/sbdb.cgi?sstr=3704150",
    "absolute_magnitude_h": 25.2,
    "estimated_diameter": {
        "kilometers": {
            "estimated_diameter_min": 0.0242412481,
            "estimated_diameter_max": 0.0542050786
        },
        "meters": {
            "estimated_diameter_min": 24.2412481101,
            "estimated_diameter_max": 54.2050786336
        },
        "miles": {
            "estimated_diameter_min": 0.0150628086,
            "estimated_diameter_max": 0.0336814639
        },
        "feet": {
            "estimated_diameter_min": 79.5316564495,
            "estimated_diameter_max": 177.8381901842
        }
    },
    "is_potentially_hazardous_asteroid": false,
    "close_approach_data": [
        {
            "close_approach_date": "2015-01-19",
            "close_approach_date_full": "2015-Jan-19 17:56",
            "epoch_date_close_approach": 1421690160000,
            "relative_velocity": {
                "kilometers_per_second": "7.0197262986",
                "kilometers_per_hour": "25271.0146748076",
                "miles_per_hour": "15702.4257572437"
            },
            "miss_distance": {
                "astronomical": "0.0720600529",
                "lunar": "28.0313605781",
                "kilometers": "10780030.425927323",
                "miles": "6698400.2977221374"
            },
            "orbiting_body": "Earth"
        }
    ],
    "orbital_data": {
        "orbit_id": "6",
        "orbit_determination_date": "2017-04-06 08:36:16",
        "first_observation_date": "2015-01-17",
        "last_observation_date": "2015-01-22",
        "data_arc_in_days": 5,
        "observations_used": 36,
        "orbit_uncertainty": "8",
        "minimum_orbit_intersection": ".0682464",
        "jupiter_tisserand_invariant": "2.983",
        "epoch_osculation": "2457042.5",
        "eccentricity": ".6288070010266389",
        "semi_major_axis": "2.834782778874788",
        "inclination": "1.443098723345352",
        "ascending_node_longitude": "286.2252808144099",
        "orbital_period": "1743.323985960224",
        "perihelion_distance": "1.052251521128571",
        "perihelion_argument": "198.3017040338106",
        "aphelion_distance": "4.617314036621005",
        "perihelion_time": "2457046.007768948859",
        "mean_anomaly": "359.2756384746845",
        "mean_motion": ".2065020632419692",
        "equinox": "J2000",
        "orbit_class": {
            "orbit_class_type": "AMO",
            "orbit_class_description": "Near-Earth asteroid orbits similar to that of 1221 Amor",
            "orbit_class_range": "1.017 AU < q (perihelion) < 1.3 AU"
        }
    },
    "is_sentry_object": false
}